{
    "links": {
        "self": "http://www.neowsapp.com/rest/v1/neo/3893487?api_key=iIulBulltgU6a56xZRHN4H3l9WmuAYTsLGpBGhQ2"
    },
    "id": "3893487",
    "neo_reference_id": "3893487",
    "name": "(2019 WM2)",
    "designation": "2019 WM2",
    "nasa_jpl_url": "http://ssd.jpl.nasa.gov/sbdb.cgi?sstr=3893487",
    "absolute_magnitude_h": 23.0,
    "estimated_diameter": {
        "kilometers": {
            "estimated_diameter_min": 0.0667659413,
            "estimated_diameter_max": 0.1492931834
        },
        "meters": {
            "estimated_diameter_min": 66.7659413495,
            "estimated_diameter_max": 149.2931834393
        },
        "miles": {
            "estimated_diameter_min": 0.0414864197,
            "estimated_diameter_max": 0.0927664547
        },
        "feet": {
            "estimated_diameter_min": 219.0483710172,
            "estimated_diameter_max": 489.807047955
        }
    },
    "is_potentially_hazardous_asteroid": false,
    "close_approach_data": [
        {
            "close_approach_date": "2019-11-14",
            "close_approach_date_full": "2019-Nov-14 01:46",
            "epoch_date_close_approach": 1573695960000,
            "relative_velocity": {
                "kilometers_per_second": "11.274204516",
                "kilometers_per_hour": "40587.1362576504",
                "miles_per_hour": "25219.2680818717"
            },
            "miss_distance": {
                "astronomical": "0.0986429455",
                "lunar": "38.3721057995",
                "kilometers": "14756774.537326085",
                "miles": "9169434.505166573"
            },
            "orbiting_body": "Earth"
        }
    ],
    "orbital_data": {
        "orbit_id": "5",
        "orbit_determination_date": "2019-12-28 08:29:28",
        "first_observation_date": "2019-11-25",
        "last_observation_date": "2019-12-24",
        "data_arc_in_days": 29,
        "observations_used": 41,
        "orbit_uncertainty": "7",
        "minimum_orbit_intersection": ".0226465",
        "jupiter_tisserand_invariant": "3.404",
        "epoch_osculation": "2459000.5",
        "eccentricity": ".5518909613141476",
        "semi_major_axis": "2.240007043843692",
        "inclination": "8.806467446305227",
        "ascending_node_longitude": "39.94874260486929",
        "orbital_period": "1224.538665791064",
        "perihelion_distance": "1.003767403066335",
        "perihelion_argument": "343.2460471512309",
        "aphelion_distance": "3.476246684621048",
        "perihelion_time": "2458782.310440475809",
        "mean_anomaly": "64.14517044095618",
        "mean_motion": ".2939882668118417",
        "equinox": "J2000",
        "orbit_class": {
            "orbit_class_type": "APO",
            "orbit_class_description": "Near-Earth asteroid orbits which cross the Earth’s orbit similar to that of 1862 Apollo",
            "orbit_class_range": "a (semi-major axis) > 1.0 AU; q (perihelion) < 1.017 AU"
        }
    },
    "is_sentry_object": false
}